NORAD_CAT_ID,OBJECT_NAME,OBJECT_TYPE,EPOCH,MEAN_MOTION,ECCENTRICITY,INCLINATION,RA_OF_ASC_NODE,ARG_OF_PERICENTER,MEAN_ANOMALY,BSTAR,MEAN_MOTION_DOT,MEAN_MOTION_DDOT,TLE_LINE0,TLE_LINE1,TLE_LINE2,SEMIMAJOR_AXIS,PERIOD,APOGEE,PERIGEE,DECAYED
52882.0,STARLINK-4181,PAYLOAD,2023-05-07 22:14:10,15.0883444,0.0001134,53.2169,348.3791,94.4773,265.6348,1.5859e-05,-3.5e-07,0.0,0 STARLINK-4181,1 52882U 22062BE  23127.92651456 -.00000035  00000-0  15859-4 0  9991,2 52882  53.2169 348.3791 0001134  94.4773 265.6348 15.08834440 49555,6917.897,95.438,540.547,538.978,0.0
52882.0,STARLINK-4181,PAYLOAD,2023-05-08 20:29:34,15.08847979,0.0001131,53.2166,344.2166,91.0146,269.0976,0.00016099,2.276e-05,0.0,0 STARLINK-4181,1 52882U 22062BE  23128.85387039  .00002276  00000-0  16099-3 0  9991,2 52882  53.2166 344.2166 0001131  91.0146 269.0976 15.08847979 50184,6917.856,95.437,540.503,538.939,0.0
52882.0,STARLINK-4181,PAYLOAD,2023-05-08 22:04:57,15.08849102,0.0001146,53.2167,343.9191,88.0112,272.1011,0.00017174,2.447e-05,0.0,0 STARLINK-4181,1 52882U 22062BE  23128.92011017  .00002447  00000-0  17174-3 0  9994,2 52882  53.2167 343.9191 0001146  88.0112 272.1011 15.08849102 49705,6917.853,95.437,540.51,538.925,0.0
52882.0,STARLINK-4181,PAYLOAD,2023-05-08 23:40:20,15.08853493,0.0001193,53.2164,343.6218,83.6152,276.4976,0.00040256,6.127e-05,0.0,0 STARLINK-4181,1 52882U 22062BE  23128.98634988  .00006127  00000-0  40256-3 0  9994,2 52882  53.2164 343.6218 0001193  83.6152 276.4976 15.08853493 49712,6917.839,95.437,540.529,538.879,0.0
52882.0,STARLINK-4181,PAYLOAD,2023-05-09 20:20:21,15.08847405,0.0001317,53.2165,339.7547,68.4786,291.6347,0.00027535,4.098e-05,0.0,0 STARLINK-4181,1 52882U 22062BE  23129.84747286  .00004098  00000-0  27535-3 0  9996,2 52882  53.2165 339.7547 0001317  68.4786 291.6347 15.08847405 49847,6917.858,95.437,540.634,538.812,0.0
52882.0,STARLINK-4181,PAYLOAD,2023-05-10 20:11:08,15.08851858,0.0001122,53.2167,335.2945,88.7762,271.3358,0.0002084,3.031e-05,0.0,0 STARLINK-4181,1 52882U 22062BE  23130.84106763  .00003031  00000-0  20840-3 0  9995,2 52882  53.2167 335.2945 0001122  88.7762 271.3358 15.08851858 49995,6917.844,95.437,540.485,538.933,0.0
52882.0,STARLINK-4181,PAYLOAD,2023-05-11 20:01:55,15.08844878,9.7e-05,53.2164,330.8306,95.1115,264.9988,0.00025841,3.828e-05,0.0,0 STARLINK-4181,1 52882U 22062BE  23131.83467078  .00003828  00000-0  25841-3 0  9994,2 52882  53.2164 330.8306 0000970  95.1115 264.9988 15.08844878 50632,6917.865,95.437,540.402,539.059,0.0
52882.0,STARLINK-4181,PAYLOAD,2023-05-12 18:17:19,15.08837638,8.05e-05,53.217,326.6729,90.9029,269.2055,2.9588e-05,1.83e-06,0.0,0 STARLINK-4181,1 52882U 22062BE  23132.76203593  .00000183  00000-0  29588-4 0  9991,2 52882  53.2170 326.6729 0000805  90.9029 269.2055 15.08837638 50779,6917.888,95.438,540.309,539.196,0.0
52882.0,STARLINK-4181,PAYLOAD,2023-05-13 05:25:01,15.08838494,6.87e-05,53.216,324.5891,89.2285,270.8785,0.00043232,6.599e-05,0.0,0 STARLINK-4181,1 52882U 22062BE  23133.22571706  .00006599  00000-0  43232-3 0  9995,2 52882  53.2160 324.5891 0000687  89.2285 270.8785 15.08838494 50351,6917.885,95.438,540.225,539.275,0.0
52882.0,STARLINK-4181,PAYLOAD,2023-05-13 19:43:29,15.08841961,9.24e-05,53.2169,321.9169,110.987,249.1221,9.5674e-05,1.235e-05,0.0,0 STARLINK-4181,1 52882U 22062BE  23133.82187484  .00001235  00000-0  95674-4 0  9997,2 52882  53.2169 321.9169 0000924 110.9870 249.1221 15.08841961 50442,6917.874,95.437,540.379,539.1,0.0
52882.0,STARLINK-4181,PAYLOAD,2023-05-14 05:15:48,15.08842123,8.8e-05,53.2167,320.1317,104.2489,255.8601,9.006e-05,1.146e-05,0.0,0 STARLINK-4181,1 52882U 22062BE  23134.21931446  .00001146  00000-0  90060-4 0  9991,2 52882  53.2167 320.1317 0000880 104.2489 255.8601 15.08842123 50996,6917.874,95.437,540.348,539.13,0.0
52882.0,STARLINK-4181,PAYLOAD,2023-05-14 19:34:17,15.08839447,0.0001081,53.2176,317.4557,117.5584,242.5518,2.8452e-06,-2.42e-06,0.0,0 STARLINK-4181,1 52882U 22062BE  23134.81547614 -.00000242  00000-0  28452-5 0  9991,2 52882  53.2176 317.4557 0001081 117.5584 242.5518 15.08839447 50599,6917.882,95.438,540.495,538.999,0.0
52882.0,STARLINK-4181,PAYLOAD,2023-05-15 05:06:36,15.08839619,7.55e-05,53.2177,315.6667,75.0848,285.0227,1.6552e-05,-2.4e-07,0.0,0 STARLINK-4181,1 52882U 22062BE  23135.21291966 -.00000024  00000-0  16552-4 0  9997,2 52882  53.2177 315.6667 0000755  75.0848 285.0227 15.08839619 51142,6917.882,95.438,540.269,539.224,0.0
52882.0,STARLINK-4181,PAYLOAD,2023-05-15 11:28:09,15.08832389,9.03e-05,53.2176,314.478,80.5824,279.527,5.1732e-05,5.36e-06,0.0,0 STARLINK-4181,1 52882U 22062BE  23135.47788455  .00000536  00000-0  51732-4 0  9995,2 52882  53.2176 314.4780 0000903  80.5824 279.5270 15.08832389 50696,6917.904,95.438,540.393,539.144,0.0
52882.0,STARLINK-4181,PAYLOAD,2023-05-15 16:14:18,15.08838589,9.01e-05,53.2166,313.5866,85.364,274.7455,9.5093e-05,1.226e-05,0.0,0 STARLINK-4181,1 52882U 22062BE  23135.67659950  .00001226  00000-0  95093-4 0  9999,2 52882  53.2166 313.5866 0000901  85.3640 274.7455 15.08838589 50721,6917.885,95.438,540.373,539.126,0.0
52882.0,STARLINK-4181,PAYLOAD,2023-05-16 04:57:23,15.08843496,8.7e-05,53.2167,311.2081,87.153,272.9562,3.4838e-05,2.67e-06,0.0,0 STARLINK-4181,1 52882U 22062BE  23136.20651817  .00000267  00000-0  34838-4 0  9997,2 52882  53.2167 311.2081 0000870  87.1530 272.9562 15.08843496 50800,6917.87,95.437,540.337,539.133,0.0
52882.0,STARLINK-4181,PAYLOAD,2023-05-16 17:40:28,15.08839394,8.72e-05,53.2174,308.8301,79.1212,280.9878,0.00011147,1.487e-05,0.0,0 STARLINK-4181,1 52882U 22062BE  23136.73643969  .00001487  00000-0  11147-3 0  9996,2 52882  53.2174 308.8301 0000872  79.1212 280.9878 15.08839394 51379,6917.882,95.438,540.35,539.144,0.0
52882.0,STARLINK-4181,PAYLOAD,2023-05-17 17:31:15,15.08839497,9.27e-05,53.2159,304.3693,89.8709,270.2389,7.4175e-05,8.93e-06,0.0,0 STARLINK-4181,1 52882U 22062BE  23137.73004047  .00000893  00000-0  74175-4 0  9996,2 52882  53.2159 304.3693 0000927  89.8709 270.2389 15.08839497 51033,6917.882,95.438,540.388,539.106,0.0
52882.0,STARLINK-4181,PAYLOAD,2023-05-18 11:00:30,15.08826489,8.28e-05,53.2165,301.0987,94.2299,265.8788,0.00020671,3.002e-05,0.0,0 STARLINK-4181,1 52882U 22062BE  23138.45868470  .00003002  00000-0  20671-3 0  9990,2 52882  53.2165 301.0987 0000828  94.2299 265.8788 15.08826489 51630,6917.922,95.438,540.359,539.214,0.0
52882.0,STARLINK-4181,PAYLOAD,2023-05-18 20:32:48,15.08840857,8.88e-05,53.2167,299.315,93.434,266.6753,5.5338e-05,5.93e-06,0.0,0 STARLINK-4181,1 52882U 22062BE  23138.85611951  .00000593  00000-0  55338-4 0  9995,2 52882  53.2167 299.3150 0000888  93.4340 266.6753 15.08840857 51206,6917.878,95.438,540.357,539.128,0.0
52882.0,STARLINK-4181,PAYLOAD,2023-05-19 17:12:49,15.08834015,7.81e-05,53.2163,295.4491,90.9319,269.1762,0.00017437,2.488e-05,0.0,0 STARLINK-4181,1 52882U 22062BE  23139.71724175  .00002488  00000-0  17437-3 0  9996,2 52882  53.2163 295.4491 0000781  90.9319 269.1762 15.08834015 51338,6917.899,95.438,540.304,539.223,0.0
52882.0,STARLINK-4181,PAYLOAD,2023-05-20 02:45:08,15.088331,7.77e-05,53.2163,293.6649,93.684,266.4241,0.00019981,2.893e-05,0.0,0 STARLINK-4181,1 52882U 22062BE  23140.11468121  .00002893  00000-0  19981-3 0  9994,2 52882  53.2163 293.6649 0000777  93.6840 266.4241 15.08833100 51883,6917.901,95.438,540.304,539.229,0.0
52882.0,STARLINK-4181,PAYLOAD,2023-05-20 17:03:35,15.0885105,7.11e-05,53.216,290.9887,85.9447,274.1626,0.00015928,2.249e-05,0.0,0 STARLINK-4181,1 52882U 22062BE  23140.71083200  .00002249  00000-0  15928-3 0  9993,2 52882  53.2160 290.9887 0000711  85.9447 274.1626 15.08851050 51976,6917.847,95.437,540.203,539.22,0.0
52882.0,STARLINK-4181,PAYLOAD,2023-05-21 08:57:28,15.08837478,0.0001187,53.2168,288.0157,95.553,264.5597,4.8068e-05,4.77e-06,0.0,0 STARLINK-4181,1 52882U 22062BE  23141.37324353  .00000477  00000-0  48068-4 0  9996,2 52882  53.2168 288.0157 0001187  95.5530 264.5597 15.08837478 52070,6917.888,95.438,540.574,538.932,0.0
52882.0,STARLINK-4181,PAYLOAD,2023-05-21 16:54:24,15.08826532,6.25e-05,53.2165,286.5295,84.2278,275.8785,-2.2054e-05,-6.38e-06,0.0,0 STARLINK-4181,1 52882U 22062BE  23141.70445362 -.00000638  00000-0 -22054-4 0  9995,2 52882  53.2165 286.5295 0000625  84.2278 275.8785 15.08826532 52122,6917.922,95.438,540.219,539.354,0.0
52882.0,STARLINK-4181,PAYLOAD,2023-05-22 02:26:43,15.08831072,8.09e-05,53.2188,284.7457,80.8602,279.2482,3.3269e-05,2.42e-06,0.0,0 STARLINK-4181,1 52882U 22062BE  23142.10189288  .00000242  00000-0  33269-4 0  9991,2 52882  53.2188 284.7457 0000809  80.8602 279.2482 15.08831072 52187,6917.908,95.438,540.332,539.213,0.0
52882.0,STARLINK-4181,PAYLOAD,2023-05-22 18:20:34,15.08847963,8.15e-05,53.2171,281.7716,82.7709,277.3376,0.00016968,2.414e-05,0.0,0 STARLINK-4181,1 52882U 22062BE  23142.76428276  .00002414  00000-0  16968-3 0  9995,2 52882  53.2171 281.7716 0000815  82.7709 277.3376 15.08847963 52288,6917.856,95.437,540.285,539.157,0.0
52882.0,STARLINK-4181,PAYLOAD,2023-05-23 08:39:02,15.08836133,8.49e-05,53.2158,279.0947,88.1783,271.9307,0.00023916,3.52e-05,0.0,0 STARLINK-4181,1 52882U 22062BE  23143.36045075  .00003520  00000-0  23916-3 0  9994,2 52882  53.2158 279.0947 0000849  88.1783 271.9307 15.08836133 52379,6917.892,95.438,540.345,539.17,0.0
52882.0,STARLINK-4181,PAYLOAD,2023-05-23 16:35:58,15.08841297,7.46e-05,53.217,277.607,86.2444,273.8633,0.0002661,3.95e-05,0.0,0 STARLINK-4181,1 52882U 22062BE  23143.69165009  .00003950  00000-0  26610-3 0  9991,2 52882  53.2170 277.6070 0000746  86.2444 273.8633 15.08841297 51934,6917.876,95.437,540.257,539.225,0.0
52882.0,STARLINK-4181,PAYLOAD,2023-05-24 14:51:22,15.08842959,8.56e-05,53.2164,273.4455,73.1149,286.9937,0.00010272,1.348e-05,0.0,0 STARLINK-4181,1 52882U 22062BE  23144.61901019  .00001348  00000-0  10272-3 0  9999,2 52882  53.2164 273.4455 0000856  73.1149 286.9937 15.08842959 52565,6917.871,95.437,540.329,539.144,0.0
